{
  "40258": [
    {
      "epoch": "2025-11-04T09:19:57.936859+00:00",
      "mean_motion": 0.99120287,
      "eccentricity": 0.0004104,
      "inclination": 1.3068,
      "raan": 85.3333,
      "arg_perigee": 134.0733,
      "mean_anomaly": 303.1658,
      "bstar": 0.0,
      "tle_line1": "1 40258U 14058A   25308.38886501 -.00000223  00000-0  00000+0 0  9991",
      "tle_line2": "2 40258   1.3068  85.3333 0004104 134.0733 303.1658  0.99120287 38740",
      "norad_id": 40258,
      "object_name": "LUCH (OLYMP)"
    },
    {
      "epoch": "2025-11-05T09:49:00.888367+00:00",
      "mean_motion": 0.99120079,
      "eccentricity": 0.0004142,
      "inclination": 1.3099,
      "raan": 85.3219,
      "arg_perigee": 135.4654,
      "mean_anomaly": 305.82390000000004,
      "bstar": 0.0,
      "tle_line1": "1 40258U 14058A   25309.40903806 -.00000229  00000-0  00000+0 0  9999",
      "tle_line2": "2 40258   1.3099  85.3219 0004142 135.4654 305.8239  0.99120079 38750",
      "norad_id": 40258,
      "object_name": "LUCH (OLYMP)"
    },
    {
      "epoch": "2025-11-06T10:31:38.767273+00:00",
      "mean_motion": 0.9911986500000001,
      "eccentricity": 0.0004172,
      "inclination": 1.313,
      "raan": 85.309,
      "arg_perigee": 136.8177,
      "mean_anomaly": 311.8881,
      "bstar": 0.0,
      "tle_line1": "1 40258U 14058A   25310.43864314 -.00000234  00000-0  00000+0 0  9990",
      "tle_line2": "2 40258   1.3130  85.3090 0004172 136.8177 311.8881  0.99119865 38763",
      "norad_id": 40258,
      "object_name": "LUCH (OLYMP)"
    },
    {
      "epoch": "2025-11-07T18:37:11.032043+00:00",
      "mean_motion": 0.9911958400000002,
      "eccentricity": 0.0004186,
      "inclination": 1.3171,
      "raan": 85.2945,
      "arg_perigee": 138.4494,
      "mean_anomaly": 67.4274,
      "bstar": 0.0,
      "tle_line1": "1 40258U 14058A   25311.77582213 -.00000237  00000-0  00000+0 0  9996",
      "tle_line2": "2 40258   1.3171  85.2945 0004186 138.4494  67.4274  0.99119584 38770",
      "norad_id": 40258,
      "object_name": "LUCH (OLYMP)"
    },
    {
      "epoch": "2025-11-08T09:08:48.931305+00:00",
      "mean_motion": 0.9911943200000001,
      "eccentricity": 0.0004188,
      "inclination": 1.3189,
      "raan": 85.2854,
      "arg_perigee": 139.0647,
      "mean_anomaly": 282.8152,
      "bstar": 0.0,
      "tle_line1": "1 40258U 14058A   25312.38112189 -.00000237  00000-0  00000+0 0  9995",
      "tle_line2": "2 40258   1.3189  85.2854 0004188 139.0647 282.8152  0.99119432 38788",
      "norad_id": 40258,
      "object_name": "LUCH (OLYMP)"
    },
    {
      "epoch": "2025-11-09T15:56:33.079193+00:00",
      "mean_motion": 0.99119153,
      "eccentricity": 0.000416,
      "inclination": 1.3227,
      "raan": 85.2699,
      "arg_perigee": 140.2045,
      "mean_anomaly": 19.5656,
      "bstar": 0.0,
      "tle_line1": "1 40258U 14058A   25313.66427175 -.00000232  00000-0  00000+0 0  9996",
      "tle_line2": "2 40258   1.3227  85.2699 0004160 140.2045  19.5656  0.99119153 38799",
      "norad_id": 40258,
      "object_name": "LUCH (OLYMP)"
    },
    {
      "epoch": "2025-11-12T16:49:53.215088+00:00",
      "mean_motion": 0.99118413,
      "eccentricity": 0.0004052,
      "inclination": 1.3314,
      "raan": 85.2378,
      "arg_perigee": 141.7902,
      "mean_anomaly": 21.733300000000003,
      "bstar": 0.0,
      "tle_line1": "1 40258U 14058A   25316.70131036 -.00000196  00000-0  00000+0 0  9991",
      "tle_line2": "2 40258   1.3314  85.2378 0004052 141.7902  21.7333  0.99118413 38827",
      "norad_id": 40258,
      "object_name": "LUCH (OLYMP)"
    },
    {
      "epoch": "2025-11-13T03:46:53.003418+00:00",
      "mean_motion": 0.99118287,
      "eccentricity": 0.000403,
      "inclination": 1.3326,
      "raan": 85.23350000000002,
      "arg_perigee": 141.8555,
      "mean_anomaly": 184.47650000000002,
      "bstar": 0.0,
      "tle_line1": "1 40258U 14058A   25317.15755791 -.00000188  00000-0  00000+0 0  9992",
      "tle_line2": "2 40258   1.3326  85.2335 0004030 141.8555 184.4765  0.99118287 38829",
      "norad_id": 40258,
      "object_name": "LUCH (OLYMP)"
    },
    {
      "epoch": "2025-11-13T16:54:37.547119+00:00",
      "mean_motion": 0.99118171,
      "eccentricity": 0.0004008,
      "inclination": 1.3341,
      "raan": 85.22900000000001,
      "arg_perigee": 142.1247,
      "mean_anomaly": 19.415000000000003,
      "bstar": 0.0,
      "tle_line1": "1 40258U 14058A   25317.70460124 -.00000177  00000-0  00000+0 0  9994",
      "tle_line2": "2 40258   1.3341  85.2290 0004008 142.1247  19.4150  0.99118171 38831",
      "norad_id": 40258,
      "object_name": "LUCH (OLYMP)"
    },
    {
      "epoch": "2025-11-13T18:27:54.578003+00:00",
      "mean_motion": 0.9911815900000001,
      "eccentricity": 0.0004005,
      "inclination": 1.3342,
      "raan": 85.22830000000002,
      "arg_perigee": 142.1378,
      "mean_anomaly": 42.5182,
      "bstar": 0.0,
      "tle_line1": "1 40258U 14058A   25317.76938169 -.00000176  00000-0  00000+0 0  9998",
      "tle_line2": "2 40258   1.3342  85.2283 0004005 142.1378  42.5182  0.99118159 38834",
      "norad_id": 40258,
      "object_name": "LUCH (OLYMP)"
    },
    {
      "epoch": "2025-11-13T21:03:04.291229+00:00",
      "mean_motion": 0.9911813700000001,
      "eccentricity": 0.0003997,
      "inclination": 1.3345,
      "raan": 85.2271,
      "arg_perigee": 142.145,
      "mean_anomaly": 80.9614,
      "bstar": 0.0,
      "tle_line1": "1 40258U 14058A   25317.87713300 -.00000173  00000-0  00000+0 0  9995",
      "tle_line2": "2 40258   1.3345  85.2271 0003997 142.1450  80.9614  0.99118137 38836",
      "norad_id": 40258,
      "object_name": "LUCH (OLYMP)"
    },
    {
      "epoch": "2025-11-14T18:02:28.689240+00:00",
      "mean_motion": 0.99117909,
      "eccentricity": 0.000396,
      "inclination": 1.3368,
      "raan": 85.2188,
      "arg_perigee": 142.4547,
      "mean_anomaly": 32.741,
      "bstar": 0.0,
      "tle_line1": "1 40258U 14058A   25318.75172094 -.00000154  00000-0  00000+0 0  9991",
      "tle_line2": "2 40258   1.3368  85.2188 0003960 142.4547  32.7410  0.99117909 38844",
      "norad_id": 40258,
      "object_name": "LUCH (OLYMP)"
    },
    {
      "epoch": "2025-11-14T20:35:54.507263+00:00",
      "mean_motion": 0.99117889,
      "eccentricity": 0.0003953,
      "inclination": 1.337,
      "raan": 85.2178,
      "arg_perigee": 142.4673,
      "mean_anomaly": 70.7493,
      "bstar": 0.0,
      "tle_line1": "1 40258U 14058A   25318.85826976 -.00000151  00000-0  00000+0 0  9994",
      "tle_line2": "2 40258   1.3370  85.2178 0003953 142.4673  70.7493  0.99117889 38848",
      "norad_id": 40258,
      "object_name": "LUCH (OLYMP)"
    },
    {
      "epoch": "2025-11-15T10:31:47.865204+00:00",
      "mean_motion": 0.9911772600000001,
      "eccentricity": 0.0003924,
      "inclination": 1.3385,
      "raan": 85.2125,
      "arg_perigee": 142.5478,
      "mean_anomaly": 277.8069,
      "bstar": 0.0,
      "tle_line1": "1 40258U 14058A   25319.43874844 -.00000138  00000-0  00000+0 0  9991",
      "tle_line2": "2 40258   1.3385  85.2125 0003924 142.5478 277.8069  0.99117726 38858",
      "norad_id": 40258,
      "object_name": "LUCH (OLYMP)"
    },
    {
      "epoch": "2025-11-15T19:07:38.440430+00:00",
      "mean_motion": 0.9911763699999999,
      "eccentricity": 0.000391,
      "inclination": 1.3394,
      "raan": 85.2087,
      "arg_perigee": 142.7489,
      "mean_anomaly": 45.4351,
      "bstar": 0.0,
      "tle_line1": "1 40258U 14058A   25319.79697269 -.00000129  00000-0  00000+0 0  9994",
      "tle_line2": "2 40258   1.3394  85.2087 0003910 142.7489  45.4351  0.99117637 38858",
      "norad_id": 40258,
      "object_name": "LUCH (OLYMP)"
    },
    {
      "epoch": "2025-11-16T10:29:04.850037+00:00",
      "mean_motion": 0.9911747099999999,
      "eccentricity": 0.0003877,
      "inclination": 1.341,
      "raan": 85.2031,
      "arg_perigee": 142.7828,
      "mean_anomaly": 273.7386,
      "bstar": 0.0,
      "tle_line1": "1 40258U 14058A   25320.43686169 -.00000113  00000-0  00000+0 0  9997",
      "tle_line2": "2 40258   1.3410  85.2031 0003877 142.7828 273.7386  0.99117471 38866",
      "norad_id": 40258,
      "object_name": "LUCH (OLYMP)"
    },
    {
      "epoch": "2025-11-16T12:11:40.023163+00:00",
      "mean_motion": 0.99117455,
      "eccentricity": 0.0003874,
      "inclination": 1.3412,
      "raan": 85.2025,
      "arg_perigee": 142.831,
      "mean_anomaly": 299.1118,
      "bstar": 0.0,
      "tle_line1": "1 40258U 14058A   25320.50810212 -.00000112  00000-0  00000+0 0  9992",
      "tle_line2": "2 40258   1.3412  85.2025 0003874 142.8310 299.1118  0.99117455 38862",
      "norad_id": 40258,
      "object_name": "LUCH (OLYMP)"
    },
    {
      "epoch": "2025-11-17T10:26:12.856995+00:00",
      "mean_motion": 0.9911721800000001,
      "eccentricity": 0.0003834,
      "inclination": 1.3435,
      "raan": 85.1934,
      "arg_perigee": 143.0188,
      "mean_anomaly": 269.6314,
      "bstar": 0.0,
      "tle_line1": "1 40258U 14058A   25321.43487103 -.00000089  00000-0  00000+0 0  9997",
      "tle_line2": "2 40258   1.3435  85.1934 0003834 143.0188 269.6314  0.99117218 38875",
      "norad_id": 40258,
      "object_name": "LUCH (OLYMP)"
    },
    {
      "epoch": "2025-11-17T18:59:30.944824+00:00",
      "mean_motion": 0.99117132,
      "eccentricity": 0.0003822,
      "inclination": 1.3444,
      "raan": 85.1894,
      "arg_perigee": 143.2673,
      "mean_anomaly": 36.582,
      "bstar": 0.0,
      "tle_line1": "1 40258U 14058A   25321.79133038 -.00000080  00000-0  00000+0 0  9992",
      "tle_line2": "2 40258   1.3444  85.1894 0003822 143.2673  36.5820  0.99117132 38876",
      "norad_id": 40258,
      "object_name": "LUCH (OLYMP)"
    }
  ],
  "44878": []
}